METOP-C                 
1 43689U 18087A   26087.82610303  .00000111  00000+0  70378-4 0  9991
2 43689  98.6725 148.8706 0001967  73.7162 286.4232 14.21503119383415
GEO-KOMPSAT-2A          
1 43823U 18100A   26087.85541139 -.00000364  00000+0  00000+0 0  9991
2 43823   0.0542  35.8753 0001640  15.6232 210.9778  1.00270275 26820
METEOR-M2 2             
1 44387U 19038A   26087.88240126 -.00000047  00000+0 -45061-6 0  9995
2 44387  98.9111  74.0019 0000290 197.7540 162.3628 14.24340576349866
ARKTIKA-M 1             
1 47719U 21016A   26086.24697042 -.00000098  00000+0  00000+0 0  9990
2 47719  63.2179  69.3783 7253959 269.5617  15.0995  2.00616454 37142
FENGYUN 3E              
1 49008U 21062A   26087.86917993 -.00000306  00000+0 -12324-3 0  9992
2 49008  98.7520  92.1696 0001360   4.2902 355.8286 14.19894849245188
GOES 18                 
1 51850U 22021A   26087.73156084  .00000077  00000+0  00000+0 0  9995
2 51850   0.0455  18.7374 0000438  36.9621 256.7912  1.00272342  5780
NOAA 21 (JPSS-2)        
1 54234U 22150A   26087.82336968  .00000063  00000+0  50572-4 0  9997
2 54234  98.7575  27.8725 0002758  73.1993 286.9486 14.19557026175147
METEOSAT-12 (MTG-I1)    
1 54743U 22170C   26087.82990554 -.00000026  00000+0  00000+0 0  9997
2 54743   0.7315  25.4287 0001869 290.1317 169.0870  1.00272753 12175
TIANMU-1 03             
1 55973U 23039A   26087.86174063  .00019203  00000+0  41044-3 0  9994
2 55973  97.5196 258.8412 0003411  48.1637 311.9902 15.44876482168421
TIANMU-1 04             
1 55974U 23039B   26087.81520701  .00022684  00000+0  47710-3 0  9997
2 55974  97.5128 257.9481 0003887  41.1261 319.0280 15.45314338168422
TIANMU-1 05             
1 55975U 23039C   26087.83907469  .00019900  00000+0  42609-3 0  9999
2 55975  97.5174 258.4621 0003636  67.8486 292.3148 15.44815853168403
TIANMU-1 06             
1 55976U 23039D   26087.81469322  .00020499  00000+0  43124-3 0  9997
2 55976  97.5185 258.9949 0003807  60.8594 299.3035 15.45328757168424
FENGYUN 3G              
1 56232U 23055A   26087.87826326  .00036447  00000+0  57721-3 0  9996
2 56232  49.9934  40.1330 0004773  15.0166 345.0942 15.53005152167524
METEOR-M2 3             
1 57166U 23091A   26087.85877047  .00000005  00000+0  21073-4 0  9990
2 57166  98.6172 144.4488 0004777  55.4939 304.6691 14.24039558143089
TIANMU-1 07             
1 57399U 23101A   26087.82330149  .00008372  00000+0  29746-3 0  9993
2 57399  97.2692 140.3427 0004655  95.4170 264.7602 15.29250575149368
TIANMU-1 08             
1 57400U 23101B   26085.76300744  .00000258  00000+0  11605-4 0  9996
2 57400  97.2683 138.1078 0005815  81.6822 278.5077 15.29307245149049
TIANMU-1 09             
1 57401U 23101C   26087.84015353  .00008260  00000+0  29335-3 0  9996
2 57401  97.2639 139.5996 0005115  94.3437 265.8388 15.29267689149367
