[{"OBJECT_NAME":"METOP-C","OBJECT_ID":"2018-087A","EPOCH":"2026-03-28T19:49:35.301792","MEAN_MOTION":14.21503119,"ECCENTRICITY":0.0001967,"INCLINATION":98.6725,"RA_OF_ASC_NODE":148.8706,"ARG_OF_PERICENTER":73.7162,"MEAN_ANOMALY":286.4232,"EPHEMERIS_TYPE":0,"CLASSIFICATION_TYPE":"U","NORAD_CAT_ID":43689,"ELEMENT_SET_NO":999,"REV_AT_EPOCH":38341,"BSTAR":7.0378e-5,"MEAN_MOTION_DOT":1.11e-6,"MEAN_MOTION_DDOT":0},{"OBJECT_NAME":"GEO-KOMPSAT-2A","OBJECT_ID":"2018-100A","EPOCH":"2026-03-28T20:31:47.544096","MEAN_MOTION":1.00270275,"ECCENTRICITY":0.000164,"INCLINATION":0.0542,"RA_OF_ASC_NODE":35.8753,"ARG_OF_PERICENTER":15.6232,"MEAN_ANOMALY":210.9778,"EPHEMERIS_TYPE":0,"CLASSIFICATION_TYPE":"U","NORAD_CAT_ID":43823,"ELEMENT_SET_NO":999,"REV_AT_EPOCH":2682,"BSTAR":0,"MEAN_MOTION_DOT":-3.64e-6,"MEAN_MOTION_DDOT":0},{"OBJECT_NAME":"METEOR-M2 2","OBJECT_ID":"2019-038A","EPOCH":"2026-03-28T21:10:39.468864","MEAN_MOTION":14.24340576,"ECCENTRICITY":2.9e-5,"INCLINATION":98.9111,"RA_OF_ASC_NODE":74.0019,"ARG_OF_PERICENTER":197.754,"MEAN_ANOMALY":162.3628,"EPHEMERIS_TYPE":0,"CLASSIFICATION_TYPE":"U","NORAD_CAT_ID":44387,"ELEMENT_SET_NO":999,"REV_AT_EPOCH":34986,"BSTAR":-4.5061e-7,"MEAN_MOTION_DOT":-4.7e-7,"MEAN_MOTION_DDOT":0},{"OBJECT_NAME":"ARKTIKA-M 1","OBJECT_ID":"2021-016A","EPOCH":"2026-03-27T05:55:38.244288","MEAN_MOTION":2.00616454,"ECCENTRICITY":0.7253959,"INCLINATION":63.2179,"RA_OF_ASC_NODE":69.3783,"ARG_OF_PERICENTER":269.5617,"MEAN_ANOMALY":15.0995,"EPHEMERIS_TYPE":0,"CLASSIFICATION_TYPE":"U","NORAD_CAT_ID":47719,"ELEMENT_SET_NO":999,"REV_AT_EPOCH":3714,"BSTAR":0,"MEAN_MOTION_DOT":-9.8e-7,"MEAN_MOTION_DDOT":0},{"OBJECT_NAME":"FENGYUN 3E","OBJECT_ID":"2021-062A","EPOCH":"2026-03-28T20:51:37.145952","MEAN_MOTION":14.19894849,"ECCENTRICITY":0.000136,"INCLINATION":98.752,"RA_OF_ASC_NODE":92.1696,"ARG_OF_PERICENTER":4.2902,"MEAN_ANOMALY":355.8286,"EPHEMERIS_TYPE":0,"CLASSIFICATION_TYPE":"U","NORAD_CAT_ID":49008,"ELEMENT_SET_NO":999,"REV_AT_EPOCH":24518,"BSTAR":-0.00012324,"MEAN_MOTION_DOT":-3.06e-6,"MEAN_MOTION_DDOT":0},{"OBJECT_NAME":"GOES 18","OBJECT_ID":"2022-021A","EPOCH":"2026-03-28T17:33:26.856576","MEAN_MOTION":1.00272342,"ECCENTRICITY":4.38e-5,"INCLINATION":0.0455,"RA_OF_ASC_NODE":18.7374,"ARG_OF_PERICENTER":36.9621,"MEAN_ANOMALY":256.7912,"EPHEMERIS_TYPE":0,"CLASSIFICATION_TYPE":"U","NORAD_CAT_ID":51850,"ELEMENT_SET_NO":999,"REV_AT_EPOCH":578,"BSTAR":0,"MEAN_MOTION_DOT":7.7e-7,"MEAN_MOTION_DDOT":0},{"OBJECT_NAME":"NOAA 21 (JPSS-2)","OBJECT_ID":"2022-150A","EPOCH":"2026-03-28T19:45:39.140352","MEAN_MOTION":14.19557026,"ECCENTRICITY":0.0002758,"INCLINATION":98.7575,"RA_OF_ASC_NODE":27.8725,"ARG_OF_PERICENTER":73.1993,"MEAN_ANOMALY":286.9486,"EPHEMERIS_TYPE":0,"CLASSIFICATION_TYPE":"U","NORAD_CAT_ID":54234,"ELEMENT_SET_NO":999,"REV_AT_EPOCH":17514,"BSTAR":5.0572e-5,"MEAN_MOTION_DOT":6.3e-7,"MEAN_MOTION_DDOT":0},{"OBJECT_NAME":"METEOSAT-12 (MTG-I1)","OBJECT_ID":"2022-170C","EPOCH":"2026-03-28T19:55:03.838656","MEAN_MOTION":1.00272753,"ECCENTRICITY":0.0001869,"INCLINATION":0.7315,"RA_OF_ASC_NODE":25.4287,"ARG_OF_PERICENTER":290.1317,"MEAN_ANOMALY":169.087,"EPHEMERIS_TYPE":0,"CLASSIFICATION_TYPE":"U","NORAD_CAT_ID":54743,"ELEMENT_SET_NO":999,"REV_AT_EPOCH":1217,"BSTAR":0,"MEAN_MOTION_DOT":-2.6e-7,"MEAN_MOTION_DDOT":0},{"OBJECT_NAME":"TIANMU-1 03","OBJECT_ID":"2023-039A","EPOCH":"2026-03-28T20:40:54.390432","MEAN_MOTION":15.44876482,"ECCENTRICITY":0.0003411,"INCLINATION":97.5196,"RA_OF_ASC_NODE":258.8412,"ARG_OF_PERICENTER":48.1637,"MEAN_ANOMALY":311.9902,"EPHEMERIS_TYPE":0,"CLASSIFICATION_TYPE":"U","NORAD_CAT_ID":55973,"ELEMENT_SET_NO":999,"REV_AT_EPOCH":16842,"BSTAR":0.00041044,"MEAN_MOTION_DOT":0.00019203,"MEAN_MOTION_DDOT":0},{"OBJECT_NAME":"TIANMU-1 04","OBJECT_ID":"2023-039B","EPOCH":"2026-03-28T19:33:53.885664","MEAN_MOTION":15.45314338,"ECCENTRICITY":0.0003887,"INCLINATION":97.5128,"RA_OF_ASC_NODE":257.9481,"ARG_OF_PERICENTER":41.1261,"MEAN_ANOMALY":319.028,"EPHEMERIS_TYPE":0,"CLASSIFICATION_TYPE":"U","NORAD_CAT_ID":55974,"ELEMENT_SET_NO":999,"REV_AT_EPOCH":16842,"BSTAR":0.0004771,"MEAN_MOTION_DOT":0.00022684,"MEAN_MOTION_DDOT":0},{"OBJECT_NAME":"TIANMU-1 05","OBJECT_ID":"2023-039C","EPOCH":"2026-03-28T20:08:16.053216","MEAN_MOTION":15.44815853,"ECCENTRICITY":0.0003636,"INCLINATION":97.5174,"RA_OF_ASC_NODE":258.4621,"ARG_OF_PERICENTER":67.8486,"MEAN_ANOMALY":292.3148,"EPHEMERIS_TYPE":0,"CLASSIFICATION_TYPE":"U","NORAD_CAT_ID":55975,"ELEMENT_SET_NO":999,"REV_AT_EPOCH":16840,"BSTAR":0.00042609,"MEAN_MOTION_DOT":0.000199,"MEAN_MOTION_DDOT":0},{"OBJECT_NAME":"TIANMU-1 06","OBJECT_ID":"2023-039D","EPOCH":"2026-03-28T19:33:09.494208","MEAN_MOTION":15.45328757,"ECCENTRICITY":0.0003807,"INCLINATION":97.5185,"RA_OF_ASC_NODE":258.9949,"ARG_OF_PERICENTER":60.8594,"MEAN_ANOMALY":299.3035,"EPHEMERIS_TYPE":0,"CLASSIFICATION_TYPE":"U","NORAD_CAT_ID":55976,"ELEMENT_SET_NO":999,"REV_AT_EPOCH":16842,"BSTAR":0.00043124,"MEAN_MOTION_DOT":0.00020499,"MEAN_MOTION_DDOT":0},{"OBJECT_NAME":"FENGYUN 3G","OBJECT_ID":"2023-055A","EPOCH":"2026-03-28T21:04:41.945664","MEAN_MOTION":15.53005152,"ECCENTRICITY":0.0004773,"INCLINATION":49.9934,"RA_OF_ASC_NODE":40.133,"ARG_OF_PERICENTER":15.0166,"MEAN_ANOMALY":345.0942,"EPHEMERIS_TYPE":0,"CLASSIFICATION_TYPE":"U","NORAD_CAT_ID":56232,"ELEMENT_SET_NO":999,"REV_AT_EPOCH":16752,"BSTAR":0.00057721,"MEAN_MOTION_DOT":0.00036447,"MEAN_MOTION_DDOT":0},{"OBJECT_NAME":"METEOR-M2 3","OBJECT_ID":"2023-091A","EPOCH":"2026-03-28T20:36:37.768608","MEAN_MOTION":14.24039558,"ECCENTRICITY":0.0004777,"INCLINATION":98.6172,"RA_OF_ASC_NODE":144.4488,"ARG_OF_PERICENTER":55.4939,"MEAN_ANOMALY":304.6691,"EPHEMERIS_TYPE":0,"CLASSIFICATION_TYPE":"U","NORAD_CAT_ID":57166,"ELEMENT_SET_NO":999,"REV_AT_EPOCH":14308,"BSTAR":2.1073e-5,"MEAN_MOTION_DOT":5.0e-8,"MEAN_MOTION_DDOT":0},{"OBJECT_NAME":"TIANMU-1 07","OBJECT_ID":"2023-101A","EPOCH":"2026-03-28T19:45:33.248736","MEAN_MOTION":15.29250575,"ECCENTRICITY":0.0004655,"INCLINATION":97.2692,"RA_OF_ASC_NODE":140.3427,"ARG_OF_PERICENTER":95.417,"MEAN_ANOMALY":264.7602,"EPHEMERIS_TYPE":0,"CLASSIFICATION_TYPE":"U","NORAD_CAT_ID":57399,"ELEMENT_SET_NO":999,"REV_AT_EPOCH":14936,"BSTAR":0.00029746,"MEAN_MOTION_DOT":8.372e-5,"MEAN_MOTION_DDOT":0},{"OBJECT_NAME":"TIANMU-1 08","OBJECT_ID":"2023-101B","EPOCH":"2026-03-26T18:18:43.842816","MEAN_MOTION":15.29307245,"ECCENTRICITY":0.00058156,"INCLINATION":97.2683,"RA_OF_ASC_NODE":138.1078,"ARG_OF_PERICENTER":81.6822,"MEAN_ANOMALY":278.5077,"EPHEMERIS_TYPE":0,"CLASSIFICATION_TYPE":"U","NORAD_CAT_ID":57400,"ELEMENT_SET_NO":999,"REV_AT_EPOCH":14904,"BSTAR":1.1604734e-5,"MEAN_MOTION_DOT":2.58e-6,"MEAN_MOTION_DDOT":0},{"OBJECT_NAME":"TIANMU-1 09","OBJECT_ID":"2023-101C","EPOCH":"2026-03-28T20:09:49.264992","MEAN_MOTION":15.29267689,"ECCENTRICITY":0.0005115,"INCLINATION":97.2639,"RA_OF_ASC_NODE":139.5996,"ARG_OF_PERICENTER":94.3437,"MEAN_ANOMALY":265.8388,"EPHEMERIS_TYPE":0,"CLASSIFICATION_TYPE":"U","NORAD_CAT_ID":57401,"ELEMENT_SET_NO":999,"REV_AT_EPOCH":14936,"BSTAR":0.00029335,"MEAN_MOTION_DOT":8.26e-5,"MEAN_MOTION_DDOT":0}]
